ION SCV-017             
1 63230U 25052W   26068.71648816  .00006457  00000+0  24539-3 0  9998
2 63230  97.4016 324.7516 0023746  44.9875 315.3282 15.26881798 54851
STARLINK-34042          
1 63838U 25093C   26068.40924482  .00014127  00000+0  52198-3 0  9994
2 63838  43.0035  75.6450 0001086 260.0551 100.0178 15.27576469 47972
