[{"OBJECT_NAME":"ION SCV-017","OBJECT_ID":"2025-052W","EPOCH":"2026-03-09T17:11:44.577024","MEAN_MOTION":15.26881798,"ECCENTRICITY":0.0023746,"INCLINATION":97.4016,"RA_OF_ASC_NODE":324.7516,"ARG_OF_PERICENTER":44.9875,"MEAN_ANOMALY":315.3282,"EPHEMERIS_TYPE":0,"CLASSIFICATION_TYPE":"U","NORAD_CAT_ID":63230,"ELEMENT_SET_NO":999,"REV_AT_EPOCH":5485,"BSTAR":0.00024539061,"MEAN_MOTION_DOT":6.457e-5,"MEAN_MOTION_DDOT":0},{"OBJECT_NAME":"STARLINK-34042","OBJECT_ID":"2025-093C","EPOCH":"2026-03-09T09:49:18.752448","MEAN_MOTION":15.27576469,"ECCENTRICITY":0.00010863,"INCLINATION":43.0035,"RA_OF_ASC_NODE":75.645,"ARG_OF_PERICENTER":260.0551,"MEAN_ANOMALY":100.0178,"EPHEMERIS_TYPE":0,"CLASSIFICATION_TYPE":"U","NORAD_CAT_ID":63838,"ELEMENT_SET_NO":999,"REV_AT_EPOCH":4797,"BSTAR":0.00052197555,"MEAN_MOTION_DOT":0.00014127,"MEAN_MOTION_DDOT":0}]
